#dP2023 10 24  0  0  0.00000000      96 __u+U IGS20 FIT  IAC
## 2285 172800.00000000   900.00000000 60241 0.0000000000000
+  119   C06C07C08C09C10C11C12C13C14C16C19C20C21C22C23C24C25
+        C26C27C28C29C30C32C33C34C35C36C37C38C39C40C41C42C43
+        C44C45C46E02E03E04E05E07E08E09E10E11E12E13E14E15E19
+        E21E24E25E26E27E30E31E33E34E36G01G02G03G04G05G06G07
+        G08G09G10G11G12G13G14G15G16G17G18G19G20G21G22G23G24
+        G25G26G27G28G29G30G31G32J02J03J04R01R02R03R04R05R07
+        R08R09R11R12R13R14R15R16R17R18R19R20R21R22R24R25R26
++         9  8  9  8  8  7  6  9  7  9  6  7  6  7  8  6  7
++         7  7  7  8  8  6  6  5  6  9  7  9  9  7  8  6  7
++         6  7  6  6  7  6  6  7  6  5  5  6  6  6  7  6  7
++         6  6  5  4  7  6  5  5  7  5  5  5  6  4  6  6  6
++         5  5  5  5  6  6  5  6  6  5  6  6  6  5  5  6  6
++         6 12  5  6  7  5  5  5  7  8  8  5  7  5  6  6  6
++         8  7  5  8  9  6  5  6  6  5  7  7  7  7  7  6  7
%c M  cc GPS ccc cccc cccc cccc cccc ccccc ccccc ccccc ccccc
%c cc cc ccc ccc cccc cccc cccc cccc ccccc ccccc ccccc ccccc
%f  0.0000000  0.000000000  0.00000000000  0.000000000000000
%f  0.0000000  0.000000000  0.00000000000  0.000000000000000
%i    0    0    0    0      0      0      0      0         0
%i    0    0    0    0      0      0      0      0         0
/* INFORMATION & ANALYSIS CENTER (IAC)      ULTRA-RAPID DATA
/* S/V CLOCKS ARE ALIGNED TO GNSS TIME                      
/* G:C1WC2W R:C1PC2P E:C1XC5X C:C2IC6I J:C1CC2S             
/* PCV:IGS20_2280 OL/AL:FES2004  NONE     YN ORB:CoN CLK:CoN
*  2023 10 24  6 45  0.00000000
PC06  -1062.170760  28051.655531  31568.514615     68.049478
PC07 -18284.536778  31570.104963 -21210.288009   -207.058873
PC08  -8432.982905  40455.573787  -7777.242054    280.014779
PC09   6094.230896  31556.039081  28011.769915      1.914381
PC10 -10192.939800  31623.799490 -25903.604178      8.126282
PC11   9422.254765 -12596.069391  23123.186299    219.750770
PC12  24255.726820    280.126371  13828.620507    885.506929
PC13  -3903.798001  41792.880559  -1448.746711    372.274953
PC14  16678.165182 -20667.834736  -8482.390701    646.442847
PC16  -5982.093752  25058.770739  33679.779012   -140.778578
PC19  -8598.104704  20958.826191  16320.385530   -973.111123
PC20 -21425.385485  17871.065481   1016.842850    177.410494
PC21  22373.195814  -3602.402316  16279.686332   -969.153784
PC22   9876.501125  12170.351771  23076.593463   -253.777951
PC23 -10553.401538 -23982.250792   9619.047922   -837.179388
PC24  12809.235131 -14093.949896 -20419.583368    525.551972
PC25    372.048793 -27052.325275  -6898.262291    239.767599
PC26  16739.062913   5572.745597 -21630.312942   -196.134116
PC27 -26515.278998  -6253.169395  -6052.854092    217.930285
PC28 -20623.156088 -15938.830136   9988.805067    164.123338
PC29   1259.783461  16954.035407 -22129.924328    191.893840
PC30 -18694.830994   7587.888883 -19275.583830     -7.042884
PC32 -22313.326163   3686.493004 -16346.298993   -531.055085
PC33   8550.362290 -21035.759679 -16221.104415   -950.917001
PC34  17522.710143  -8558.143477  19959.590629    287.899516
PC35  21272.920184  15156.346630  -9876.861066    518.501267
PC36  -1603.645702  26776.639831   7690.627917   -165.743273
PC37 -16577.270368  -6872.632220  21387.466410   -863.010909
PC38 -12473.217816  37169.789535 -15246.636166    113.149486
PC39  -9839.449660  22279.290696  34477.788830     -5.366723
PC40 -25514.024800  25940.207591 -21504.588455    -41.287304
PC41  -9255.513610 -12689.761691 -23021.362710   -872.117999
PC42  22022.330937 -17115.845797    531.677511   -514.673835
PC43   -177.735141 -16831.963765  22249.710319     45.286866
PC44  26773.161667   5371.401591   5808.467361    271.162087
PC45  10753.337780  23649.756715 -10153.491719    -39.204763
PC46 -12200.885624  15168.128085  19975.327122    -94.255577
PE02 -10471.196356 -15257.681614  23106.590561     72.588118
PE03 -21408.828905 -10309.407774 -17666.239217    -67.691854
PE04  29494.381711  -2400.837318    775.049976   -241.348149
PE05   -938.794090 -16982.800157 -24230.336145     30.461104
PE07 -20581.686343  13591.684040  16367.168673    -83.954352
PE08 -29503.130880   2075.408561  -1301.751815   -166.146621
PE09  20681.468001 -13464.962862 -16344.052487   -202.462763
PE10  16010.821849  -4644.875358  24453.576753   -573.500595
PE11   8659.943320 -14723.827451  24166.626045   3129.569128
PE12  20299.942487   5099.504914  20932.672515   -748.830697
PE13  -9154.962219  14065.654703 -24376.445686    -19.632667
PE14 -16007.952347 -13774.016471  16985.923343    377.529134
PE15 -20393.834173  -5588.615210 -20706.961797    -63.715876
PE19  19248.819484  11576.099546  19280.227333  -1360.907686
PE21  -3571.328322  27010.096914 -11562.059397   -560.256347
PE24  16599.464667 -23271.825622  -7744.508802   -392.727239
PE25   3852.227723 -27112.965384  11252.753109     -3.691967
PE26   7732.642179  25389.253714 -13087.125616    260.313157
PE27 -16266.354780  23634.711231   7259.157314   -182.265798
PE30 -19228.954129   5894.050655  21706.877334   -604.862985
PE31  19228.652178  -6397.565525 -21567.917456     -8.437605
PE33  19298.653563  21999.649465   4392.919569      0.897806
PE34 -19577.073144 -21649.049645  -4981.812989    -74.077422
PE36  -7262.933567 -25197.012318  13738.002391   -134.215906
PG01  19079.535788  10818.236035  14876.354153    163.442862
PG02  20618.621933  14029.455577   9909.053089   -538.119264
PG03  15737.157611   -170.864771  21228.752920    -59.803501
PG04  26335.006290   1158.129147   3779.399805    193.211076
PG05  -9340.144107 -14376.810930 -20443.086253   -147.687206
PG06  -2455.487245 -21465.455973  15453.309556    523.498676
PG07  13791.197055  -6740.603427 -21228.325358     32.122389
PG08  22560.990542   6450.203012 -12905.089890   -148.664629
PG09  24915.665247  -7133.458954  -6039.526912    -23.564036
PG10 -10623.724370  24139.876805    679.342838    -58.576151
PG11 -11510.324162 -23598.652592   4210.674956   -429.102172
PG12 -15070.903859  -3312.719318  21335.947595   -439.291871
PG13 -14513.652063 -13197.596384 -18205.316213    587.497598
PG14  13463.563727 -22614.394849  -2772.140429    223.004790
PG15 -23515.802626  -3836.949420 -12460.055169     90.155845
PG16   3855.038004  18911.271899 -18355.466742   -434.066674
PG17  14362.021999 -13105.078519  18587.036340    723.738159
PG18 -12114.237548   8696.317335 -21967.113596   -458.256852
PG19   4951.964967 -14566.491262  21412.842329    389.211871
PG20  -2686.619915 -23543.033034 -12140.893420    405.236620
PG21  20293.160612  16786.925518   6673.516364    146.041312
PG22  10055.837540 -24330.590640   4972.189070     97.074478
PG23 -16033.218356  17602.698991 -11567.022632     87.486886
PG24 -20872.194044 -13235.705558   9876.855292   -353.976001
PG25 -17515.499543  10812.032546  16313.475252    474.185867
PG26  -1532.730838  24534.297487  -9714.350746    221.299542
PG27  11170.053788  13205.919890 -20522.552073    -59.768551
PG28   1249.587443  20739.442007  16523.247319    -31.413372
PG29 -25523.859692   4505.167501  -6095.305155   -610.169955
PG30   6081.681867 -16583.104198 -19640.962084   -475.526367
PG31   8105.387165  23361.544441   8910.915518   -224.996321
PG32  -9463.944625  14958.728520  19918.603359   -576.839851
PJ02 -32547.081440  26075.435029  11059.899270     -6.256375
PJ03 -23795.335590  18023.562602 -25167.142612     -5.984210
PJ04 -26756.627068  32761.563921   5891.100519     71.503187
PR01   9599.794469   6948.543529  22581.563725     68.323586
PR02  21741.645160  -4637.598054  12612.606537    -22.369690
PR03  21127.531862 -13619.405606  -4499.159749     87.679315
PR04   9120.420674 -14599.906896 -18810.498374    208.145115
PR05  -7851.858905  -7929.780682 -22930.362951    121.114955
PR07 -20675.698049  13861.037406   5467.865282     67.560545
PR08  -8694.043152  14710.297479  18974.287444    -73.043528
PR09 -11275.967520  -2157.256345  22792.916983    149.353266
PR11  -2383.383931  25106.481852   3895.502124   -207.281644
PR12   6438.952668  19852.871111 -14629.108206     32.686642
PR13  10781.904914   4799.268264 -22626.143879    -40.516123
PR14   8969.843124 -15949.197578 -17750.615184     25.461074
PR15   1933.343627 -25313.682541  -2439.619153     85.163901
PR16  -6377.719476 -19995.389103  14483.292792     19.965212
PR17  12373.808729  -3998.647368  21948.107309     28.552445
PR18  -2997.472432 -13473.312299  21461.117905    108.416147
PR19 -15479.929491 -16837.760177  11311.130881   -252.005857
PR20 -21520.446298  -9817.652499  -9493.157247   -102.341664
PR21 -11776.423439   4337.778059 -22207.690645    -47.929791
PR22   3385.297310  14302.360910 -20820.209806     90.148031
PR24  21896.419733   8428.548565  10001.623877    -29.419842
PR25 -12760.818077   3641.659070 -21781.109854     -6.121752
PR26  -9177.303444  14870.978354  18603.605710    -19.521504
EOF
